GSAT0233 (GALILEO 33)   
1 67160U 25302A   26138.89929920  .00000019  00000+0  00000+0 0  9998
2 67160  54.3182 102.9642 0001581 248.0002 293.8232  1.70474069  2627
GSAT0234 (GALILEO 34)   
1 67162U 25302C   26141.39823021  .00000020  00000+0  00000+0 0  9996
2 67162  54.3213 102.8922 0003527 303.0920 152.4921  1.70474066  2720
